QIANFAN-60              
1 62790U 25016F   26085.46910340  .00000014  00000+0  21037-5 0  9998
2 62790  88.9659  92.3079 0017382  49.1833 311.0823 13.51010082 61231
QIANFAN-61              
1 62791U 25016G   26085.50206229  .00000018  00000+0  91277-5 0  9995
2 62791  88.9726  92.5381 0016297  48.9311 311.3245 13.51006535 61258
QIANFAN-62              
1 62792U 25016H   26085.50623432  .00000026  00000+0  21405-4 0  9999
2 62792  88.9673  92.3500 0017681  48.7874 311.4798 13.51004962 61246
QIANFAN-63              
1 62793U 25016J   26085.45681713  .00000037  00000+0  37917-4 0  9997
2 62793  88.9679  92.3136 0017871  53.7437 306.5362 13.51007272 61272
QIANFAN-64              
1 62794U 25016K   26085.49794600  .00000023  00000+0  16575-4 0  9994
2 62794  88.9666  92.2694 0015633  47.9705 312.2774 13.51006261 61272
QIANFAN-65              
1 62795U 25016L   26085.49368831  .00000026  00000+0  21956-4 0  9990
2 62795  88.9662  92.2922 0015524  49.5311 310.7191 13.51009590 61255
QIANFAN-66              
1 62796U 25016M   26085.44861134  .00000041  00000+0  44701-4 0  9990
2 62796  88.9682  92.2874 0016508  45.3414 314.9079 13.50997789 61295
QIANFAN-67              
1 62797U 25016N   26085.45270085  .00000040  00000+0  43513-4 0  9990
2 62797  88.9672  92.3024 0016663  51.5604 308.7040 13.50996140 61261
QIANFAN-68              
1 62798U 25016P   26085.44445715  .00000029  00000+0  26627-4 0  9998
2 62798  88.9676  92.3522 0016667  49.9837 310.2774 13.51006087 61245
QIANFAN-69              
1 62799U 25016Q   26085.46091758  .00000032  00000+0  30856-4 0  9998
2 62799  88.9655  92.1976 0017454  50.6051 309.6643 13.51006348 61287
QIANFAN-70              
1 62800U 25016R   26085.47740889  .00000018  00000+0  85445-5 0  9997
2 62800  88.9675  92.3562 0016777  41.9761 318.2673 13.51007861 61249
QIANFAN-71              
1 62801U 25016S   26085.39924023  .00000021  00000+0  13801-4 0  9993
2 62801  88.9669  92.3376 0017451  54.0053 306.2713 13.50997381 61230
QIANFAN-72              
1 62802U 25016T   26085.48978257  .00000030  00000+0  27283-4 0  9991
2 62802  88.9660  92.3314 0020858  59.5872 300.7337 13.50996903 61238
QIANFAN-73              
1 63159U 25046A   26085.51660376  .00000061  00000+0  75668-4 0  9998
2 63159  88.9721 309.2973 0014645 176.9923 183.1319 13.51002674 61429
QIANFAN-74              
1 63160U 25046B   26085.50016899  .00000097  00000+0  13155-3 0  9995
2 63160  88.9721 309.1880 0002006  80.1802 279.9576 13.51003525 61488
QIANFAN-75              
1 63161U 25046C   26085.56207882  .00000032  00000+0  30540-4 0  9993
2 63161  88.9723 309.4168 0015706 180.5273 179.5865 13.50973315 61366
QIANFAN-76              
1 63162U 25046D   26085.55769887  .00000042  00000+0  46244-4 0  9990
2 63162  88.9723 309.3970 0013230 179.8535 180.2622 13.50999872 61376
QIANFAN-77              
1 63163U 25046E   26085.53619182  .00000114  00000+0  73059-4 0  9995
2 63163  88.9720 306.5519 0016605 112.9597 247.3334 13.96183657 62931
QIANFAN-78              
1 63164U 25046F   26085.45075453  .00000156  00000+0  22352-3 0  9999
2 63164  88.9721 309.2711 0014485 183.4255 176.6799 13.51005160 61431
QIANFAN-79              
1 63165U 25046G   26085.55361078  .00000075  00000+0  98059-4 0  9990
2 63165  88.9725 309.3720 0014400 181.3693 178.7421 13.51013818 61396
QIANFAN-80              
1 63166U 25046H   26085.49600927  .00000041  00000+0  44582-4 0  9998
2 63166  88.9722 309.0820 0013106 185.2630 174.8385 13.51002333 61541
QIANFAN-81              
1 63167U 25046J   26085.54860091  .00000011  00000+0 -22459-5 0  9993
2 63167  88.9722 309.1445 0014487 174.6317 185.4993 13.50967612 61501
QIANFAN-82              
1 63168U 25046K   26085.50837274  .00000042  00000+0  45567-4 0  9994
2 63168  88.9722 309.1925 0012364 180.7680 179.3454 13.51003960 61487
QIANFAN-83              
1 63169U 25046L   26085.50551818  .00000087  00000+0  96674-4 0  9996
2 63169  88.9722 308.7651 0014372 160.7714 199.3989 13.62027922 61724
QIANFAN-84              
1 63170U 25046M   26085.53878751  .00000151  00000+0  21492-3 0  9996
2 63170  88.9722 309.3224 0015696 179.0214 181.0971 13.50836675 61412
QIANFAN-85              
1 63171U 25046N   26085.53303405  .00000031  00000+0  29938-4 0  9997
2 63171  88.9721 309.1937 0012817 179.8244 180.2914 13.50999305 61489
QIANFAN-86              
1 63172U 25046P   26085.54124462  .00000037  00000+0  38795-4 0  9990
2 63172  88.9723 309.0574 0010533 182.6904 177.4192 13.51005633 61564
QIANFAN-87              
1 63173U 25046Q   26085.51244043  .00000069  00000+0  87760-4 0  9997
2 63173  88.9720 309.1679 0011360 178.2262 181.8931 13.51001329 61496
QIANFAN-88              
1 63174U 25046R   26085.52889876  .00000042  00000+0  45643-4 0  9993
2 63174  88.9722 309.1234 0011491 187.0329 173.0662 13.51002428 61522
QIANFAN-89              
1 63175U 25046S   26085.49187516  .00000031  00000+0  28834-4 0  9993
2 63175  88.9723 309.3164 0016235 179.6197 180.4970 13.51012736 61414
QIANFAN-90              
1 63176U 25046T   26085.44663529  .00000098  00000+0  13244-3 0  9993
2 63176  88.9723 309.2936 0013244 176.7369 183.3871 13.51014191 61427
QIANFAN-91              
1 66033U 25233A   26085.47924857  .00000089  00000+0  11981-3 0  9999
2 66033  88.9966  51.5423 0002308  87.9440 272.1975 13.51006496 22014
QIANFAN-92              
1 66034U 25233B   26085.48739654  .00000094  00000+0  12627-3 0  9994
2 66034  88.9950  51.5268 0002122  84.6944 275.4449 13.51007553 22019
QIANFAN-93              
1 66035U 25233C   26085.49564181  .00000090  00000+0  12098-3 0  9995
2 66035  88.9976  51.5554 0002246  87.4187 272.7221 13.51006961 22013
QIANFAN-94              
1 66036U 25233D   26085.48334124  .00000095  00000+0  12919-3 0  9994
2 66036  88.9973  51.4628 0002243  83.2629 276.8777 13.50993755 22065
QIANFAN-95              
1 66037U 25233E   26085.49135536  .00000097  00000+0  13122-3 0  9991
2 66037  88.9971  51.0078 0002409  85.7043 274.4383 13.51002608 22314
QIANFAN-96              
1 66038U 25233F   26085.44220168  .00000082  00000+0  10772-3 0  9995
2 66038  88.9968  51.5581 0002358  88.8729 271.2692 13.51006560 22008
QIANFAN-97              
1 66039U 25233G   26085.49980207  .00000083  00000+0  10921-3 0  9995
2 66039  88.9971  51.5336 0002290  87.6895 272.4518 13.51005931 22020
QIANFAN-98              
1 66040U 25233H   26085.50796684  .00000084  00000+0  11094-3 0  9996
2 66040  88.9961  51.2727 0002400  73.8287 286.3128 13.51006718 22167
QIANFAN-99              
1 66041U 25233J   26085.51212803  .00000081  00000+0  10643-3 0  9990
2 66041  88.9972  51.5359 0002437  78.4943 281.6482 13.51006680 22028
QIANFAN-100             
1 66042U 25233K   26085.50385722  .00000087  00000+0  11622-3 0  9995
2 66042  88.9983  51.4545 0002259  87.8937 272.2473 13.51007677 22074
QIANFAN-101             
1 66043U 25233L   26085.46773877  .00000519  00000+0  20816-3 0  9998
2 66043  88.9972  50.0512 0017090  59.5388 300.7491 14.26758021 22837
QIANFAN-102             
1 66044U 25233M   26085.52450289  .00000089  00000+0  11951-3 0  9997
2 66044  88.9970  51.4463 0002286  82.6742 277.4669 13.50994531 22075
QIANFAN-103             
1 66045U 25233N   26085.52859943  .00000094  00000+0  12645-3 0  9995
2 66045  88.9972  51.5387 0002259  88.0414 272.0996 13.51008122 22022
QIANFAN-104             
1 66046U 25233P   26085.53251397  .00000095  00000+0  12830-3 0  9993
2 66046  88.9977  51.4367 0002196  81.2979 278.8421 13.51001519 22071
QIANFAN-105             
1 66047U 25233Q   26085.46688754  .00000077  00000+0  10127-3 0  9994
2 66047  88.9991  51.2754 0002370  85.6108 274.5314 13.51008957 22170
QIANFAN-106             
1 66048U 25233R   26085.46273214  .00000083  00000+0  11041-3 0  9999
2 66048  88.9959  51.5147 0002376  75.6527 284.4888 13.51007125 22020
QIANFAN-107             
1 66049U 25233S   26085.47102281  .00000079  00000+0  10382-3 0  9998
2 66049  88.9975  51.5332 0002242  87.2767 272.8640 13.51005111 22022
QIANFAN-108             
1 66050U 25233T   26085.47510418  .00000083  00000+0  11032-3 0  9993
2 66050  88.9968  51.5263 0002331  76.3537 283.7874 13.51006528 22025
